0 HJ-1B
1 33321U 08041B   13282.18719868  .00000725  00000-0  11399-3 0  6468
2 33321 097.8102 341.7197 0038304 059.2539 301.2436 14.74989170274062
0 HJ-1B
1 33321U 08041B   13282.45855141  .00000701  00000-0  11040-3 0  6471
2 33321 097.8102 341.9816 0038291 058.4245 302.0689 14.74989362274109
0 HJ-1B
1 33321U 08041B   13282.79774231  .00000684  00000-0  10785-3 0  6484
2 33321 097.8101 342.3087 0038260 057.3233 303.1659 14.74989735274152
0 HJ-1B
1 33321U 08041B   13283.13693301  .00000673  00000-0  10635-3 0  6494
2 33321 097.8100 342.6359 0038239 056.2415 304.2446 14.74990219274203
0 HJ-1B
1 33321U 08041B   13283.34044696  .00000671  00000-0  10606-3 0  6502
2 33321 097.8099 342.8323 0038236 055.5924 304.8893 14.74990514274230
0 HJ-1B
1 33321U 08041B   13283.61179913  .00000672  00000-0  10620-3 0  6500
2 33321 097.8099 343.0940 0038225 054.7413 305.7365 14.74990942274273
0 HJ-1B
1 33321U 08041B   13283.81531327  .00000668  00000-0  10552-3 0  6513
2 33321 097.8099 343.2904 0038209 054.1254 306.3493 14.74991195274308
0 HJ-1B
1 33321U 08041B   13284.15450324  .00000685  00000-0  10812-3 0  6527
2 33321 097.8097 343.6175 0038200 053.0394 307.4318 14.74991932274356
0 HJ-1B
1 33321U 08041B   13284.42585466  .00000704  00000-0  11090-3 0  6535
2 33321 097.8098 343.8797 0038149 052.3584 308.1099 14.74992605274390
0 HJ-1B
1 33321U 08041B   13285.44342240  .00000765  00000-0  11984-3 0  6561
2 33321 097.8095 344.8612 0038158 049.0397 311.4111 14.74994835274545
0 HJ-1B
1 33321U 08041B   13285.78261126  .00000816  00000-0  12729-3 0  6577
2 33321 097.8096 345.1887 0038142 047.9839 312.4623 14.74995832274597
0 HJ-1B
1 33321U 08041B   13286.12179998  .00000832  00000-0  12963-3 0  6580
2 33321 097.8095 345.5158 0038090 046.9306 313.5106 14.74996606274645
0 HJ-1B
1 33321U 08041B   13286.46098826  .00000839  00000-0  13072-3 0  6597
2 33321 097.8095 345.8431 0038078 045.8625 314.5711 14.74997290274698
0 HJ-1B
1 33321U 08041B   13286.80017667  .00000868  00000-0  13493-3 0  6600
2 33321 097.8095 346.1704 0038089 044.8016 315.6262 14.74998128274740
0 HJ-1B
1 33321U 08041B   13287.13936470  .00000899  00000-0  13957-3 0  6619
2 33321 097.8093 346.4974 0038073 043.7373 316.6853 14.74999087274794
0 HJ-1B
1 33321U 08041B   13287.47855251  .00000908  00000-0  14086-3 0  6629
2 33321 097.8093 346.8248 0038057 042.6315 317.7841 14.74999827274845
0 HJ-1B
1 33321U 08041B   13287.74990277  .00000939  00000-0  14544-3 0  6631
2 33321 097.8093 347.0866 0038085 041.7822 318.6289 14.75000605274886
0 HJ-1B
1 33321U 08041B   13288.08909060  .00000936  00000-0  14491-3 0  6648
2 33321 097.8092 347.4137 0038036 040.7463 319.6586 14.75001210274936
0 HJ-1B
1 33321U 08041B   13288.42827798  .00000948  00000-0  14676-3 0  6652
2 33321 097.8091 347.7410 0038028 039.6506 320.7475 14.75001999274987
0 HJ-1B
1 33321U 08041B   13288.76746533  .00000963  00000-0  14885-3 0  6666
2 33321 097.8091 348.0684 0038039 038.5809 321.8109 14.75002791275034
0 HJ-1B
1 33321U 08041B   13289.10665281  .00000955  00000-0  14773-3 0  6673
2 33321 097.8090 348.3956 0038003 037.5338 322.8526 14.75003393275083
0 HJ-1B
1 33321U 08041B   13289.44583964  .00000950  00000-0  14700-3 0  6683
2 33321 097.8089 348.7227 0037986 036.4827 323.8962 14.75004056275134
0 HJ-1B
1 33321U 08041B   13289.78502627  .00000959  00000-0  14826-3 0  6696
2 33321 097.8089 349.0502 0037957 035.4497 324.9215 14.75004775275180
0 HJ-1B
1 33321U 08041B   13290.12421325  .00000952  00000-0  14733-3 0  6703
2 33321 097.8089 349.3775 0037957 034.3920 325.9743 14.75005438275234
0 HJ-1B
1 33321U 08041B   13290.25988775  .00000950  00000-0  14695-3 0  6710
2 33321 097.8088 349.5084 0037945 033.9706 326.3924 14.75005705275257
0 HJ-1B
1 33321U 08041B   13290.80258561  .00000964  00000-0  14902-3 0  6721
2 33321 097.8088 350.0318 0037906 032.3225 328.0299 14.75006981275330
0 HJ-1B
1 33321U 08041B   13291.14177135  .00000992  00000-0  15317-3 0  6739
2 33321 097.8088 350.3592 0037824 031.2338 329.1138 14.75008055275382
0 HJ-1B
1 33321U 08041B   13291.48095655  .00001001  00000-0  15450-3 0  6743
2 33321 097.8088 350.6865 0037810 030.1239 330.2140 14.75008883275432
0 HJ-1B
1 33321U 08041B   13291.75230492  .00001021  00000-0  15748-3 0  6756
2 33321 097.8087 350.9481 0037798 029.3011 331.0314 14.75009630275478
0 HJ-1B
1 33321U 08041B   13292.15932721  .00001046  00000-0  16108-3 0  6764
2 33321 097.8089 351.3409 0037736 028.0183 332.3058 14.75010723275534
0 HJ-1B
1 33321U 08041B   13292.43067501  .00001066  00000-0  16399-3 0  6775
2 33321 097.8088 351.6027 0037731 027.1609 333.1567 14.75011518275571
0 HJ-1B
1 33321U 08041B   13292.76985987  .00001084  00000-0  16671-3 0  6782
2 33321 097.8087 351.9303 0037737 026.0747 334.2355 14.75012434275628
0 HJ-1B
1 33321U 08041B   13293.10904486  .00001089  00000-0  16736-3 0  6794
2 33321 097.8088 352.2577 0037686 025.0003 335.3036 14.75013219275678
0 HJ-1B
1 33321U 08041B   13293.44822925  .00001089  00000-0  16739-3 0  6803
2 33321 097.8087 352.5850 0037669 023.9326 336.3625 14.75013976275721
0 HJ-1B
1 33321U 08041B   13293.78741361  .00001106  00000-0  16996-3 0  6810
2 33321 097.8089 352.9124 0037678 022.8376 337.4499 14.75014881275776
0 HJ-1B
1 33321U 08041B   13294.12659836  .00001092  00000-0  16792-3 0  6823
2 33321 097.8086 353.2397 0037603 021.7836 338.4981 14.75015498275824
0 HJ-1B
1 33321U 08041B   13294.46578210  .00001088  00000-0  16734-3 0  6838
2 33321 097.8085 353.5670 0037564 020.7255 339.5471 14.75016249275876
0 HJ-1B
1 33321U 08041B   13294.80496590  .00001094  00000-0  16811-3 0  6840
2 33321 097.8084 353.8940 0037544 019.6350 340.6293 14.75017045275925
0 HJ-1B
1 33321U 08041B   13295.14414975  .00001090  00000-0  16765-3 0  6850
2 33321 097.8082 354.2212 0037505 018.5748 341.6831 14.75017813275973
0 HJ-1B
1 33321U 08041B   13295.48333304  .00001084  00000-0  16674-3 0  6866
2 33321 097.8082 354.5485 0037490 017.4779 342.7711 14.75018549276026
0 HJ-1B
1 33321U 08041B   13295.75467973  .00001082  00000-0  16637-3 0  6874
2 33321 097.8083 354.8105 0037444 016.6511 343.5910 14.75019086276064
0 HJ-1B
1 33321U 08041B   13296.16169995  .00001071  00000-0  16475-3 0  6882
2 33321 097.8082 355.2031 0037398 015.3642 344.8699 14.75019890276123
